NORAD_CAT_ID,OBJECT_NAME,OBJECT_TYPE,EPOCH,MEAN_MOTION,ECCENTRICITY,INCLINATION,RA_OF_ASC_NODE,ARG_OF_PERICENTER,MEAN_ANOMALY,BSTAR,MEAN_MOTION_DOT,MEAN_MOTION_DDOT,TLE_LINE0,TLE_LINE1,TLE_LINE2,SEMIMAJOR_AXIS,PERIOD,APOGEE,PERIGEE,DECAYED
52996.0,STARLINK-4295,PAYLOAD,2022-07-31 20:00:01,15.73248701,0.0002255999999999,53.2181,259.4037,25.3517,263.4459,-0.00072577,-0.00101483,0.0,0 STARLINK-4295,1 52996U 22076L   22212.83334491 -.00101483  00000-0 -72577-3 0  9992,2 52996  53.2181 259.4037 0002256  25.3517 263.4459 15.73248701  4321,6727.755999999999,91.53,351.139,348.10400000000016,0.0
52996.0,STARLINK-4295,PAYLOAD,2022-07-31 22:00:00,15.73193995,0.0002136,53.2182,258.9909,24.7603,16.2918,-5.9861e-05,-9.012e-05,0.0,0 STARLINK-4295,1 52996U 22076L   22212.91667824 -.00009012  00000-0 -59861-4 0  9997,2 52996  53.2182 258.9909 0002136  24.7603  16.2918 15.73193995  1303,6727.9119999999975,91.534,351.214,348.34,0.0
52996.0,STARLINK-4295,PAYLOAD,2022-08-01 04:00:00,15.73192595,0.0002133999999999,53.2183,257.7539,25.762,351.9711,0.00014966,0.00020428,0.0,0 STARLINK-4295,1 52996U 22076L   22213.16667824  .00020428  00000-0  14966-3 0  9993,2 52996  53.2183 257.7539 0002134  25.7620 351.9711 15.73192595  4373,6727.916,91.534,351.217,348.346,0.0
52996.0,STARLINK-4295,PAYLOAD,2022-08-01 14:00:01,15.73188056,0.0002411,53.2181,255.6941,21.7291,197.1765,0.00054347,0.00076314,0.0,0 STARLINK-4295,1 52996U 22076L   22213.58334491  .00076314  00000-0  54347-3 0  9992,2 52996  53.2181 255.6941 0002411  21.7291 197.1765 15.73188056  1309,6727.929,91.534,351.416,348.172,0.0
52996.0,STARLINK-4295,PAYLOAD,2022-08-01 22:00:00,15.73231008,0.0002190999999999,53.2185,254.0425,22.6343,285.215,-0.00010765,-0.00015723,0.0,0 STARLINK-4295,1 52996U 22076L   22213.91667824 -.00015723  00000-0 -10765-3 0  9993,2 52996  53.2185 254.0425 0002191  22.6343 285.2150 15.73231008  1309,6727.807,91.531,351.146,348.1980000000001,0.0
52996.0,STARLINK-4295,PAYLOAD,2022-08-02 06:00:02,15.73212762,0.000225,53.2188,252.3935,22.0245,14.8548,-0.0002118,-0.00030259,0.0,0 STARLINK-4295,1 52996U 22076L   22214.25002315 -.00030259  00000-0 -21180-3 0  9993,2 52996  53.2188 252.3935 0002250  22.0245  14.8548 15.73212762  4542,6727.859,91.532,351.23800000000006,348.21,0.0
52996.0,STARLINK-4295,PAYLOAD,2022-08-02 14:00:01,15.73196314,0.0002456,53.2185,250.7453,18.137,107.61,0.00012947,0.00017586,0.0,0 STARLINK-4295,1 52996U 22076L   22214.58334491  .00017586  00000-0  12947-3 0  9999,2 52996  53.2185 250.7453 0002456  18.1370 107.6100 15.73196314  1309,6727.906,91.533,351.423,348.11800000000005,0.0
52996.0,STARLINK-4295,PAYLOAD,2022-08-03 04:00:00,15.73181948,0.000215,53.2187,247.8573,17.7474,173.6094,9.9087e-05,0.00013297,0.0,0 STARLINK-4295,1 52996U 22076L   22215.16667824  .00013297  00000-0  99087-4 0  9999,2 52996  53.2187 247.8573 0002150  17.7474 173.6094 15.73181948  4688,6727.946999999999,91.534,351.2580000000001,348.365,0.0
52996.0,STARLINK-4295,PAYLOAD,2022-08-03 14:00:01,15.73180927,0.0002474,53.2184,245.7972,15.0414,17.4588,0.00041007,0.00057281,0.0,0 STARLINK-4295,1 52996U 22076L   22215.58334491  .00057281  00000-0  41007-3 0  9995,2 52996  53.2184 245.7972 0002474  15.0414  17.4588 15.73180927  1304,6727.95,91.534,351.47900000000016,348.15,0.0
52996.0,STARLINK-4295,PAYLOAD,2022-08-03 22:00:01,15.73192723,0.0002218999999999,53.2188,244.1455,16.5426,104.9641,0.00048841,0.00068468,0.0,0 STARLINK-4295,1 52996U 22076L   22215.91668981  .00068468  00000-0  48841-3 0  9998,2 52996  53.2188 244.1455 0002219  16.5426 104.9641 15.73192723  1302,6727.916,91.534,351.274,348.288,0.0
52996.0,STARLINK-4295,PAYLOAD,2022-08-04 04:00:00,15.73264579,0.0002290999999999,53.2192,242.9088,18.5577,79.5805,-0.00030625,-0.00043504,0.0,0 STARLINK-4295,1 52996U 22076L   22216.16667824 -.00043504  00000-0 -30625-3 0  9998,2 52996  53.2192 242.9088 0002291  18.5577  79.5805 15.73264579  4844,6727.7109999999975,91.529,351.117,348.035,0.0
52996.0,STARLINK-4295,PAYLOAD,2022-08-04 14:00:01,15.73185023,0.0002516,53.2189,240.8486,10.8004,288.562,0.00020517,0.00028254,0.0,0 STARLINK-4295,1 52996U 22076L   22216.58334491  .00028254  00000-0  20517-3 0  9997,2 52996  53.2189 240.8486 0002516  10.8004 288.5620 15.73185023  1300,6727.938,91.534,351.496,348.11,0.0
52996.0,STARLINK-4295,PAYLOAD,2022-08-04 22:00:00,15.73175014,0.0002245,53.2189,239.1972,12.6785,15.6137,0.00050139,0.00070266,0.0,0 STARLINK-4295,1 52996U 22076L   22216.91667824  .00070266  00000-0  50139-3 0  9996,2 52996  53.2189 239.1972 0002245  12.6785  15.6137 15.73175014  1307,6727.965999999999,91.535,351.342,348.321,0.0
52996.0,STARLINK-4295,PAYLOAD,2022-08-05 04:00:00,15.73261757,0.0002278,53.2191,237.9609,11.3997,353.5724,-0.00074532,-0.00104225,0.0,0 STARLINK-4295,1 52996U 22076L   22217.16667824 -.00104225  00000-0 -74532-3 0  9992,2 52996  53.2191 237.9609 0002278  11.3997 353.5724 15.73261757  5007,6727.719,91.53,351.117,348.052,0.0
52996.0,STARLINK-4295,PAYLOAD,2022-08-05 12:00:00,15.73149889,0.0002488,53.2189,236.3132,7.935,86.0149,0.00057887,0.00081241,0.0,0 STARLINK-4295,1 52996U 22076L   22217.50001157  .00081241  00000-0  57887-3 0  9995,2 52996  53.2189 236.3132 0002488   7.9350  86.0149 15.73149889  5050,6728.038000000001,91.536,351.577,348.22900000000016,0.0
52996.0,STARLINK-4295,PAYLOAD,2022-08-05 14:00:01,15.7317861,0.0002484999999999,53.2186,235.9005,7.4788,198.7529,0.00028079,0.00038936,0.0,0 STARLINK-4295,1 52996U 22076L   22217.58335648  .00038936  00000-0  28079-3 0  9992,2 52996  53.2186 235.9005 0002485   7.4788 198.7529 15.73178610  1309,6727.956,91.534,351.49300000000005,348.149,0.0
52996.0,STARLINK-4295,PAYLOAD,2022-08-05 22:00:00,15.73186395,0.000226,53.219,234.2491,9.8818,285.217,0.00067807,0.00095581,0.0,0 STARLINK-4295,1 52996U 22076L   22217.91667824  .00095581  00000-0  67807-3 0  9994,2 52996  53.2190 234.2491 0002260   9.8818 285.2170 15.73186395  1309,6727.934,91.534,351.319,348.278,0.0
52996.0,STARLINK-4295,PAYLOAD,2022-08-06 04:00:03,15.73255371,0.0002331999999999,53.2193,233.0127,12.2141,259.7177,0.00012811,0.00017439,0.0,0 STARLINK-4295,1 52996U 22076L   22218.16670139  .00017439  00000-0  12811-3 0  9996,2 52996  53.2193 233.0127 0002332  12.2141 259.7177 15.73255371  5164,6727.736999999999,91.53,351.171,348.033,0.0
52996.0,STARLINK-4295,PAYLOAD,2022-08-06 12:00:00,15.7315391,0.0002701,53.2191,231.365,16.8125,343.9406,0.00050947,0.00071356,0.0,0 STARLINK-4295,1 52996U 22076L   22218.50001157  .00071356  00000-0  50947-3 0  9992,2 52996  53.2191 231.3650 0002701  16.8125 343.9406 15.73153910  5219,6728.026999999999,91.536,351.709,348.074,0.0
52996.0,STARLINK-4295,PAYLOAD,2022-08-06 14:00:01,15.73183112,0.0002679,53.2189,230.9522,16.905,96.0646,0.00018166,0.00024934,0.0,0 STARLINK-4295,1 52996U 22076L   22218.58334491  .00024934  00000-0  18166-3 0  9997,2 52996  53.2189 230.9522 0002679  16.9050  96.0646 15.73183112  1306,6727.943,91.534,351.611,348.006,0.0
52996.0,STARLINK-4295,PAYLOAD,2022-08-06 22:00:00,15.73190342,0.000239,53.2187,229.301,18.1841,183.7146,0.0003773999999999,0.0005266,0.0,0 STARLINK-4295,1 52996U 22076L   22218.91667824  .00052660  00000-0  37740-3 0  9999,2 52996  53.2187 229.3010 0002390  18.1841 183.7146 15.73190342  1302,6727.9230000000025,91.534,351.396,348.18,0.0
52996.0,STARLINK-4295,PAYLOAD,2022-08-07 04:00:00,15.73248966,0.0002471,53.2189,228.0651,17.2635,161.3314,-0.00066424,-0.0009302999999999,0.0,0 STARLINK-4295,1 52996U 22076L   22219.16667824 -.00093030  00000-0 -66424-3 0  9996,2 52996  53.2189 228.0651 0002471  17.2635 161.3314 15.73248966  5312,6727.755999999999,91.53,351.283,347.958,0.0
52996.0,STARLINK-4295,PAYLOAD,2022-08-07 12:00:00,15.73160466,0.0002651,53.2184,226.4172,13.7,253.8403,0.00050794,0.00071158,0.0,0 STARLINK-4295,1 52996U 22076L   22219.50001157  .00071158  00000-0  50794-3 0  9993,2 52996  53.2184 226.4172 0002651  13.7000 253.8403 15.73160466  5374,6728.0080000000025,91.535,351.656,348.089,0.0
52996.0,STARLINK-4295,PAYLOAD,2022-08-07 14:00:01,15.73191975,0.0002648999999999,53.2182,226.0044,14.3164,5.4413,0.0001503,0.00020519,0.0,0 STARLINK-4295,1 52996U 22076L   22219.58334491  .00020519  00000-0  15030-3 0  9990,2 52996  53.2182 226.0044 0002649  14.3164   5.4413 15.73191975  1301,6727.918000000002,91.534,351.565,348.001,0.0
52996.0,STARLINK-4295,PAYLOAD,2022-08-07 22:00:00,15.73219027,0.0002423999999999,53.2185,224.353,19.7952,88.9064,-0.00017846,-0.00025615,0.0,0 STARLINK-4295,1 52996U 22076L   22219.91667824 -.00025615  00000-0 -17846-3 0  9997,2 52996  53.2185 224.3530 0002424  19.7952  88.9064 15.73219027  1307,6727.840999999999,91.532,351.337,348.075,0.0
52996.0,STARLINK-4295,PAYLOAD,2022-08-08 04:00:00,15.73217736,0.0002572,53.2187,223.1171,22.8927,62.5326,4.5277e-05,5.742e-05,0.0,0 STARLINK-4295,1 52996U 22076L   22220.16667824  .00005742  00000-0  45277-4 0  9993,2 52996  53.2187 223.1171 0002572  22.8927  62.5326 15.73217736  5474,6727.845,91.532,351.44,347.97900000000016,0.0
52996.0,STARLINK-4295,PAYLOAD,2022-08-08 12:00:00,15.73223043,0.0002742,53.2183,221.4688,21.5179,152.863,0.00054869,0.0007718,0.0,0 STARLINK-4295,1 52996U 22076L   22220.50001157  .00077180  00000-0  54869-3 0  9993,2 52996  53.2183 221.4688 0002742  21.5179 152.8630 15.73223043  5523,6727.829000000002,91.532,351.539,347.85,0.0
52996.0,STARLINK-4295,PAYLOAD,2022-08-08 14:00:01,15.73278196,0.000269,53.2182,221.0558,20.6285,266.0489,-0.00021247,-0.00030439,0.0,0 STARLINK-4295,1 52996U 22076L   22220.58335648 -.00030439  00000-0 -21247-3 0  9998,2 52996  53.2182 221.0558 0002690  20.6285 266.0489 15.73278196  1305,6727.672,91.529,351.347,347.727,0.0
52996.0,STARLINK-4295,PAYLOAD,2022-08-08 17:21:39,15.732366699999998,0.0002266999999999,53.2187,220.3599,39.2033,320.9151,0.00058217,0.00082019,0.0,0 STARLINK-4295,1 52996U 22076L   22220.72336900  .00082019  00000-0  58217-3 0  9992,2 52996  53.2187 220.3599 0002267  39.2033 320.9151 15.73236670  5563,6727.791,91.531,351.181,348.13,0.0
